     2.11           N: GPS NAV DATA                         RINEX VERSION / TYPE
teqc  2019Feb25     CORS-ADM Account    20260521 07:45:01UTCPGM / RUN BY / DATE
Linux 2.4.21-27.ELsmp|Opteron|gcc|Linux 64|=+               COMMENT
     2.10           N: GPS NAV DATA                         COMMENT
rvacn.e(1404.07)                        2026-05-21T07:26 UTCCOMMENT
This file contains the validated broadcast navigation       COMMENT
messages from the following files:                          COMMENT
aaaa1410.26n, abmf141g.26n, abpo141g.26n, albh141g.26n,     COMMENT
areq141g.26n, baie141g.26n, bake141g.26n, brew141g.26n,     COMMENT
brst141g.26n, brux141g.26n, bshm141g.26n, bucu141g.26n,     COMMENT
cebr141g.26n, chpi141g.26n, chum141g.26n, chur141g.26n,     COMMENT
cro1141g.26n, dgar141g.26n, djig141g.26n, dlf1141g.26n,     COMMENT
drao141g.26n, dubo141g.26n, ebre141g.26n, faa1141g.26n,     COMMENT
fair141g.26n, falk141g.26n, flin141g.26n, glps141g.26n,     COMMENT
glsv141g.26n, gode141g.26n, guam141g.26n, harb141g.26n,     COMMENT
hers141g.26n, hlfx141g.26n, hofn141g.26n, holb141g.26n,     COMMENT
hrao141g.26n, iisc141g.26n, iqal141g.26n, ista141g.26n,     COMMENT
joze141g.26n, jplm141g.26n, kiru141g.26n, kokb141g.26n,     COMMENT
koug141g.26n, kour141g.26n, lmmf141g.26n, lpal141g.26n,     COMMENT
m0se141g.26n, mal2141g.26n, mar6141g.26n, mas1141g.26n,     COMMENT
mat1141g.26n, mate141g.26n, mcm4141g.26n, mdo1141g.26n,     COMMENT
medi141g.26n, met3141g.26n, mkea141g.26n, mro1141g.26n,     COMMENT
nain141g.26n, nano141g.26n, nico141g.26n, nklg141g.26n,     COMMENT
nlib141g.26n, nnor141g.26n, not1141g.26n, nrc1141g.26n,     COMMENT
onsa141g.26n, orid141g.26n, palm141g.26n, pert141g.26n,     COMMENT
picl141g.26n, pie1141g.26n, pimo141g.26n, prds141g.26n,     COMMENT
qaq1141g.26n, qiki141g.26n, reso141g.26n, reun141g.26n,     COMMENT
reyk141g.26n, riga141g.26n, sant141g.26n, sask141g.26n,     COMMENT
sch2141g.26n, scor141g.26n, seyg141g.26n, stj3141g.26n,     COMMENT
stjo141g.26n, stpm141g.26n, suth141g.26n, suwn141g.26n,     COMMENT
thtg141g.26n, thu2141g.26n, unbj141g.26n, usud141g.26n,     COMMENT
vacs141g.26n, vald141g.26n, vill141g.26n, vis0141g.26n,     COMMENT
warn141g.26n, whit141g.26n, will141g.26n, wsrt141g.26n,     COMMENT
wtzr141g.26n, xmis141g.26n, yar2141g.26n, yebe141g.26n,     COMMENT
yell141g.26n, zim2141g.26n, zimm141g.26n                    COMMENT
    1.1180D-08  2.2350D-08 -5.9600D-08 -1.1920D-07          ION ALPHA
    9.8300D+04  1.3110D+05 -1.3110D+05 -5.8980D+05          ION BETA
    1.862645149230D-09 7.993605777300D-15   503808     2419 DELTA-UTC: A0,A1,T,W
                                                            END OF HEADER
13 26  5 21  4  0  0.0 3.138710744679D-04 2.501110429876D-11 0.000000000000D+00
    2.100000000000D+02 5.812500000000D+00 4.925205154564D-09 3.716522138808D-01
    2.514570951462D-07 2.331721130759D-03 6.552785634995D-06 5.153625366211D+03
    3.600000000000D+05-4.656612873077D-08-4.497972527067D-01 5.960464477539D-08
    9.594175398201D-01 2.518750000000D+02 1.845730037905D+00-8.167840223330D-09
   -1.603638226540D-10 1.000000000000D+00 2.419000000000D+03 0.000000000000D+00
    2.000000000000D+00 6.300000000000D+01-8.381903171539D-09 2.100000000000D+02
    3.528180000000D+05 4.000000000000D+00
14 26  5 21  4  0  0.0 7.468056865036D-04 9.094947017729D-13 0.000000000000D+00
    1.550000000000D+02 5.843750000000D+00 5.381295581132D-09 4.634690823533D-01
    3.557652235031D-07 7.148765958846D-03 6.165355443954D-06 5.153648979187D+03
    3.600000000000D+05 3.166496753693D-08-3.971182090417D-01 7.264316082001D-08
    9.423198807997D-01 2.474687500000D+02-2.705930979950D+00-8.414993375394D-09
   -3.117987019532D-10 1.000000000000D+00 2.419000000000D+03 0.000000000000D+00
    2.000000000000D+00 0.000000000000D+00-7.916241884232D-09 1.550000000000D+02
    3.528180000000D+05 4.000000000000D+00
15 26  5 21  4  0  0.0 4.133461043239D-04 3.183231456205D-12 0.000000000000D+00
    2.000000000000D+01-1.210937500000D+02 4.764127016442D-09 3.110885915331D+00
   -6.508082151413D-06 1.677425217349D-02 6.511807441711D-06 5.153738275528D+03
    3.600000000000D+05 2.775341272354D-07-2.678460339367D+00-8.381903171539D-08
    9.440014261342D-01 2.420000000000D+02 1.516070455928D+00-7.938187800242D-09
    8.321775206769D-11 1.000000000000D+00 2.419000000000D+03 0.000000000000D+00
    2.000000000000D+00 0.000000000000D+00-1.071020960808D-08 2.000000000000D+01
    3.528180000000D+05 4.000000000000D+00
16 26  5 21  4  0  0.0 2.668527886271D-04 6.821210263297D-12 0.000000000000D+00
    6.200000000000D+01 4.031250000000D+00 4.891275169815D-09-1.115614287687D+00
    3.390014171600D-07 1.498208544217D-02 6.735324859619D-06 5.153676950455D+03
    3.600000000000D+05 2.607703208923D-07-3.244019377857D-01 3.073364496231D-07
    9.581392244474D-01 2.470312500000D+02 9.337930521145D-01-8.112123616796D-09
   -3.918020344131D-10 1.000000000000D+00 2.419000000000D+03 0.000000000000D+00
    2.000000000000D+00 0.000000000000D+00-1.024454832077D-08 6.200000000000D+01
    3.540420000000D+05 4.000000000000D+00
17 26  5 21  4  0  0.0-1.393696293235D-04-7.958078640513D-12 0.000000000000D+00
    4.200000000000D+01 5.928125000000D+01 4.361253092268D-09-2.190695948880D+00
    3.075227141380D-06 1.256770745385D-02 1.020170748234D-05 5.153639991760D+03
    3.600000000000D+05 4.470348358154D-08 6.914175732544D-01 2.477318048477D-07
    9.584158520158D-01 1.831250000000D+02-1.108640144661D+00-7.737107995890D-09
   -5.768097407267D-10 1.000000000000D+00 2.419000000000D+03 0.000000000000D+00
    2.000000000000D+00 0.000000000000D+00-1.071020960808D-08 4.200000000000D+01
    3.528270000000D+05 4.000000000000D+00
18 26  5 21  4  0  0.0-3.474992699921D-04 9.208633855451D-12 0.000000000000D+00
    2.000000000000D+02 9.484375000000D+01 4.072312485304D-09 2.116216224969D+00
    4.973262548447D-06 5.992814549245D-03 5.558133125305D-06 5.153633275986D+03
    3.600000000000D+05-1.173466444016D-07 1.703101738189D+00 4.656612873077D-08
    9.709776998843D-01 2.782500000000D+02-2.873656764299D+00-8.007476400676D-09
    7.571743964957D-11 1.000000000000D+00 2.419000000000D+03 0.000000000000D+00
    2.800000000000D+00 0.000000000000D+00-8.381903171539D-09 4.560000000000D+02
    3.528180000000D+05 4.000000000000D+00
19 26  5 21  4  0  0.0 7.002633064985D-04 9.094947017729D-13 0.000000000000D+00
    2.500000000000D+01 5.125000000000D+01 4.441970740197D-09-4.746566079244D-01
    2.542510628700D-06 1.153826259542D-02 9.955838322639D-06 5.153739900589D+03
    3.600000000000D+05 2.346932888031D-07 7.352343820803D-01-2.272427082062D-07
    9.575529453980D-01 1.910000000000D+02 2.977908841673D+00-7.983189674751D-09
   -5.310935507496D-10 1.000000000000D+00 2.419000000000D+03 0.000000000000D+00
    2.000000000000D+00 0.000000000000D+00-1.536682000000D-08 2.500000000000D+01
    3.528600000000D+05 4.000000000000D+00
20 26  5 21  4  0  0.0 1.632818020880D-04 1.614353095647D-11 0.000000000000D+00
    2.320000000000D+02-1.085000000000D+02 4.466614623856D-09 4.624812893449D-01
   -5.830079317093D-06 2.048663911410D-03 7.610768079758D-06 5.153605171204D+03
    3.600000000000D+05-3.911554813385D-08-2.527358917615D+00-4.284083843231D-08
    9.612962777342D-01 2.337500000000D+02-1.834822345155D+00-8.007833558410D-09
    1.110760553350D-10 1.000000000000D+00 2.419000000000D+03 0.000000000000D+00
    2.000000000000D+00 0.000000000000D+00-6.984919309616D-09 2.320000000000D+02
    3.528180000000D+05 4.000000000000D+00
21 26  5 21  4  0  0.0 4.136972129345D-04-1.477928890381D-12 0.000000000000D+00
    1.610000000000D+02-3.175000000000D+01 4.536260382024D-09 1.543785308740D-01
   -1.553446054459D-06 7.901164935902D-04 1.920387148857D-06 5.153554050446D+03
    3.600000000000D+05 1.862645149231D-09 2.750589367511D+00 3.911554813385D-08
    9.638909940889D-01 3.417812500000D+02-1.496781487528D-01-8.382492021582D-09
    6.678849629467D-11 1.000000000000D+00 2.419000000000D+03 0.000000000000D+00
    2.000000000000D+00 0.000000000000D+00-9.778887033463D-09 6.730000000000D+02
    3.528180000000D+05 4.000000000000D+00
22 26  5 21  4  0  0.0 1.493841409683D-06 6.707523425575D-12 0.000000000000D+00
    8.500000000000D+01 6.718750000000D+00 4.983421865238D-09-1.553693816738D+00
    3.222376108170D-07 1.193410204723D-02 6.800517439842D-06 5.153715860367D+03
    3.600000000000D+05-3.110617399216D-07-3.210339551185D-01 1.303851604462D-08
    9.575986937722D-01 2.471562500000D+02-9.954383323907D-01-8.213556413307D-09
   -3.028697585983D-10 1.000000000000D+00 2.419000000000D+03 0.000000000000D+00
    2.000000000000D+00 0.000000000000D+00-1.117587089539D-08 8.500000000000D+01
    3.528180000000D+05 4.000000000000D+00
23 26  5 21  4  0  0.0 6.497781723738D-04 4.206412995700D-12 0.000000000000D+00
    1.660000000000D+02-3.062500000000D+01 3.966593795982D-09 9.271494086144D-01
   -1.683831214905D-06 6.201544310898D-03 2.466142177582D-06 5.153719131470D+03
    3.600000000000D+05-9.313225746155D-09 2.711745811601D+00 9.499490261078D-08
    9.889329668333D-01 3.469687500000D+02-2.740953923413D+00-8.102123200238D-09
   -5.000208278745D-12 1.000000000000D+00 2.419000000000D+03 0.000000000000D+00
    2.000000000000D+00 0.000000000000D+00-8.381903171539D-09 6.780000000000D+02
    3.528180000000D+05 4.000000000000D+00
24 26  5 21  4  0  0.0 2.114614471793D-05 1.875832822407D-11 0.000000000000D+00
    8.000000000000D+01-2.546875000000D+01 5.077354349332D-09 2.305783057325D+00
   -1.527369022369D-06 1.810839038808D-02 9.233132004738D-06 5.153640827179D+03
    3.600000000000D+05 1.043081283569D-07-1.569681299412D+00-3.725290298462D-07
    9.346991294448D-01 1.855000000000D+02 1.147174211473D+00-7.889257190657D-09
    4.400183285296D-10 1.000000000000D+00 2.419000000000D+03 0.000000000000D+00
    2.000000000000D+00 0.000000000000D+00 2.328306436539D-09 8.000000000000D+01
    3.528180000000D+05 4.000000000000D+00
